KUIPER-00095            
1 65134U 25171C   25326.66670139 -.00797286  00000+0 -41534-1 0  9999
2 65134  51.8810 268.0303 0006270 122.8045 196.8497 15.18224577  2775
KUIPER-00096            
1 65135U 25171D   25326.66670139  .00012095  00000+0  11750-2 0  9994
2 65135  51.8922 271.8423 0011534 147.1850  87.7163 14.92904273  4249
KUIPER-00097            
1 65136U 25171E   25326.66670139  .00004388  00000+0  51194-3 0  9998
2 65136  51.8968 274.1491 0011096 144.0474 277.0180 14.86899736  5257
KUIPER-00098            
1 65137U 25171F   25326.66670139  .00010793  00000+0  14421-2 0  9997
2 65137  51.9001 276.3424 0008209 143.8927  13.8964 14.79927204  4023
KUIPER-00099            
1 65138U 25171G   25326.66670139 -.01072409  00000+0 -66176-1 0  9996
2 65138  51.8897 269.0473 0007019 157.5536  96.5317 15.12201883  5482
KUIPER-00100            
1 65139U 25171H   25326.66670139 -.00480863  00000+0 -24760-1 0  9996
2 65139  51.8847 268.0571 0002654 138.6679 222.7050 15.18206227  5046
KUIPER-00102            
1 65140U 25171J   25326.66670139  .00038417  00000+0  21778-2 0  9997
2 65140  51.8860 269.0228 0011897 139.9390  50.6504 15.12566050  5854
KUIPER-00103            
1 65141U 25171K   25326.19014438  .00014284  00000+0  18965-2 0  9990
2 65141  51.8988 285.9434 0006821 138.2078 221.9406 14.79973193 16799
